RADARSAT-2              
1 32382U 07061A   26188.88913321 -.00000226  00000+0 -70744-4 0  9999
2 32382  98.5784 195.5256 0001318  84.3014 275.8319 14.29981271968919
